STARLINK-31567          
1 59199U 24045X   26068.43135816 -.00005323  00000+0 -18394-3 0  9993
2 59199  43.0003  93.8497 0000791 244.6072 115.4698 15.27599181113127
FLOCK 4G-27             
1 62641U 25009AJ  26068.75406453  .00012587  00000+0  47455-3 0  9991
2 62641  97.3976 150.8631 0000756 322.4974  37.6212 15.27199247 63710
